[{"OBJECT_NAME":"STARLINK-5168","OBJECT_ID":"2022-136W","EPOCH":"2026-03-09T22:05:11.176800","MEAN_MOTION":15.08851703,"ECCENTRICITY":0.00024416,"INCLINATION":53.2172,"RA_OF_ASC_NODE":342.7407,"ARG_OF_PERICENTER":126.5718,"MEAN_ANOMALY":233.5499,"EPHEMERIS_TYPE":0,"CLASSIFICATION_TYPE":"U","NORAD_CAT_ID":54071,"ELEMENT_SET_NO":999,"REV_AT_EPOCH":18688,"BSTAR":0.0001218469,"MEAN_MOTION_DOT":1.652e-5,"MEAN_MOTION_DDOT":0},{"OBJECT_NAME":"OBJECT F","OBJECT_ID":"2025-292F","EPOCH":"2026-03-09T22:41:00.950496","MEAN_MOTION":15.06065121,"ECCENTRICITY":0.00151037,"INCLINATION":97.6416,"RA_OF_ASC_NODE":145.7425,"ARG_OF_PERICENTER":346.7214,"MEAN_ANOMALY":13.3613,"EPHEMERIS_TYPE":0,"CLASSIFICATION_TYPE":"U","NORAD_CAT_ID":66998,"ELEMENT_SET_NO":999,"REV_AT_EPOCH":1351,"BSTAR":0.00047210602,"MEAN_MOTION_DOT":6.85e-5,"MEAN_MOTION_DDOT":0}]
